IRIDIUM 144             
1 43249U 18030A   24361.17577844  .00000058  00000+0  13558-4 0  9991
2 43249  86.3989 155.3139 0001839  97.0227 263.1178 14.34217889353020
IRIDIUM 149             
1 43250U 18030B   24361.18212294 -.00000133  00000+0 -54423-4 0  9991
2 43250  86.3995 155.2846 0002023  97.9164 262.2261 14.34216580353040
IRIDIUM 157             
1 43251U 18030C   24360.99183544  .00000437  00000+0  14888-3 0  9990
2 43251  86.3990 155.4051 0002204  93.2475 266.8973 14.34214211352993
IRIDIUM 140             
1 43252U 18030D   24361.15040291  .00000755  00000+0  26264-3 0  9995
2 43252  86.3990 155.3530 0001906  93.0392 267.1022 14.34221431353070
IRIDIUM 145             
1 43253U 18030E   24361.13771887  .00000876  00000+0  30569-3 0  9993
2 43253  86.3989 155.3313 0001780 103.6010 256.5384 14.34222223353009
IRIDIUM 146             
1 43254U 18030F   24361.18846401  .00000023  00000+0  12047-5 0  9991
2 43254  86.3993 155.3243 0001735 103.4477 256.6913 14.34217031353024
IRIDIUM 148             
1 43255U 18030G   24361.15675038  .00000212  00000+0  68699-4 0  9998
2 43255  86.3991 155.3725 0002042  98.7209 261.4218 14.34218364353054
IRIDIUM 142             
1 43256U 18030H   24361.19480713 -.00000162  00000+0 -64775-4 0  9994
2 43256  86.3993 155.2652 0001889 106.9955 253.1448 14.34216511353025
